[
  {
    "city": "Ada",
    "zip": 24430
  },
  {
    "city": "Adaševci",
    "zip": 22244
  },
  {
    "city": "Adorjan",
    "zip": 24425
  },
  {
    "city": "Adrani",
    "zip": 36203
  },
  {
    "city": "Azanja",
    "zip": 11423
  },
  {
    "city": "Aleksa Šantić",
    "zip": 25212
  },
  {
    "city": "Aleksandrovac",
    "zip": 12370
  },
  {
    "city": "Aleksandrovac",
    "zip": 37230
  },
  {
    "city": "Aleksandrovo",
    "zip": 23217
  },
  {
    "city": "Aleksinac",
    "zip": 18220
  },
  {
    "city": "Aleksinački Rudnik",
    "zip": 18226
  },
  {
    "city": "Alibunar",
    "zip": 26310
  },
  {
    "city": "Aljinovići",
    "zip": 31307
  },
  {
    "city": "Apatin",
    "zip": 25260
  },
  {
    "city": "Aradac",
    "zip": 23207
  },
  {
    "city": "Aranđelovac",
    "zip": 34300
  },
  {
    "city": "Arilje",
    "zip": 31230
  },
  {
    "city": "Ašanja",
    "zip": 22418
  },
  {
    "city": "Babušnica",
    "zip": 18330
  },
  {
    "city": "Bavanište",
    "zip": 26222
  },
  {
    "city": "Bagrdan",
    "zip": 35204
  },
  {
    "city": "Badnjevac",
    "zip": 34226
  },
  {
    "city": "Badovinci",
    "zip": 15358
  },
  {
    "city": "Bajina Bašta",
    "zip": 31250
  },
  {
    "city": "Bajmok",
    "zip": 24210
  },
  {
    "city": "Bajša",
    "zip": 24331
  },
  {
    "city": "Balajnac",
    "zip": 18257
  },
  {
    "city": "Baljevac",
    "zip": 36344
  },
  {
    "city": "Banatska Dubica",
    "zip": 23251
  },
  {
    "city": "Banatska Palanka",
    "zip": 26324
  },
  {
    "city": "Banatska Subotica",
    "zip": 26327
  },
  {
    "city": "Banatska Topola",
    "zip": 23315
  },
  {
    "city": "Banatski Brestovac",
    "zip": 26234
  },
  {
    "city": "Banatski Dvor",
    "zip": 23213
  },
  {
    "city": "Banatski Despotovac",
    "zip": 23242
  },
  {
    "city": "Banatski Karlovac",
    "zip": 26320
  },
  {
    "city": "Banatsko Aranđelovo",
    "zip": 23332
  },
  {
    "city": "Banatsko Veliko Selo",
    "zip": 23312
  },
  {
    "city": "Banatsko Karađorđevo",
    "zip": 23216
  },
  {
    "city": "Banatsko Novo Selo",
    "zip": 26314
  },
  {
    "city": "Banovo Polje",
    "zip": 15362
  },
  {
    "city": "Banovci-Dunav",
    "zip": 22303
  },
  {
    "city": "Banoštor",
    "zip": 21312
  },
  {
    "city": "Banja",
    "zip": 34304
  },
  {
    "city": "Banja (kod Priboja)",
    "zip": 31337
  },
  {
    "city": "Banja Koviljača",
    "zip": 15316
  },
  {
    "city": "Banjani",
    "zip": 14214
  },
  {
    "city": "Banjska",
    "zip": 38216
  },
  {
    "city": "Barajevo",
    "zip": 11460
  },
  {
    "city": "Baranda",
    "zip": 26205
  },
  {
    "city": "Barbatovac",
    "zip": 18426
  },
  {
    "city": "Bare",
    "zip": 12227
  },
  {
    "city": "Bare",
    "zip": 34205
  },
  {
    "city": "Bare",
    "zip": 36315
  },
  {
    "city": "Barice",
    "zip": 26367
  },
  {
    "city": "Barič",
    "zip": 11504
  },
  {
    "city": "Barlovo",
    "zip": 18432
  },
  {
    "city": "Baroševac",
    "zip": 11565
  },
  {
    "city": "Batočina",
    "zip": 34227
  },
  {
    "city": "Batrovci",
    "zip": 22251
  },
  {
    "city": "Batuse",
    "zip": 38210
  },
  {
    "city": "Bač",
    "zip": 21420
  },
  {
    "city": "Bačevci",
    "zip": 31258
  },
  {
    "city": "Bačina",
    "zip": 37265
  },
  {
    "city": "Bačinci",
    "zip": 22225
  },
  {
    "city": "Bačka Palanka",
    "zip": 21400
  },
  {
    "city": "Bačka Topola",
    "zip": 24300
  },
  {
    "city": "Bački Breg",
    "zip": 25275
  },
  {
    "city": "Bački Brestovac",
    "zip": 25242
  },
  {
    "city": "Bački Vinogradi",
    "zip": 24415
  },
  {
    "city": "Bački Gračac",
    "zip": 25252
  },
  {
    "city": "Bački Jarak",
    "zip": 21234
  },
  {
    "city": "Bački Monoštor",
    "zip": 25272
  },
  {
    "city": "Bački Petrovac",
    "zip": 21470
  },
  {
    "city": "Bački Sokolac",
    "zip": 24343
  },
  {
    "city": "Bačko Gradište",
    "zip": 21217
  },
  {
    "city": "Bačko Dobro Polje",
    "zip": 21465
  },
  {
    "city": "Bačko Novo Selo",
    "zip": 21429
  },
  {
    "city": "Bačko Petrovo Selo",
    "zip": 21226
  },
  {
    "city": "Bašaid",
    "zip": 23316
  },
  {
    "city": "Begeč",
    "zip": 21411
  },
  {
    "city": "Bezdan",
    "zip": 25270
  },
  {
    "city": "Bela Voda",
    "zip": 37253
  },
  {
    "city": "Bela Zemlja",
    "zip": 31311
  },
  {
    "city": "Bela Palanka",
    "zip": 18310
  },
  {
    "city": "Bela Crkva",
    "zip": 15313
  },
  {
    "city": "Bela Crkva",
    "zip": 26340
  },
  {
    "city": "Belanovica",
    "zip": 14246
  },
  {
    "city": "Bele Vode",
    "zip": 32259
  },
  {
    "city": "Belegiš",
    "zip": 22306
  },
  {
    "city": "Beli Potok",
    "zip": 11223
  },
  {
    "city": "Beli Potok",
    "zip": 19366
  },
  {
    "city": "Belo Blato",
    "zip": 23205
  },
  {
    "city": "Beloljin",
    "zip": 18424
  },
  {
    "city": "Belosavci",
    "zip": 34312
  },
  {
    "city": "Belotinac",
    "zip": 18411
  },
  {
    "city": "Beloševac",
    "zip": 34208
  },
  {
    "city": "Belušić",
    "zip": 35263
  },
  {
    "city": "Beljina",
    "zip": 11461
  },
  {
    "city": "Beograd",
    "zip": 11000
  },
  {
    "city": "Beočin",
    "zip": 21300
  },
  {
    "city": "Berkasovo",
    "zip": 22242
  },
  {
    "city": "Bečej",
    "zip": 21220
  },
  {
    "city": "Bešenovo",
    "zip": 22212
  },
  {
    "city": "Beška",
    "zip": 22324
  },
  {
    "city": "Bigrenica",
    "zip": 35238
  },
  {
    "city": "Bikić Do",
    "zip": 22254
  },
  {
    "city": "Bikovo",
    "zip": 24206
  },
  {
    "city": "Biljača",
    "zip": 17522
  },
  {
    "city": "Bingula",
    "zip": 22253
  },
  {
    "city": "Bioska",
    "zip": 31241
  },
  {
    "city": "Bistar",
    "zip": 17546
  },
  {
    "city": "Bistrica",
    "zip": 31325
  },
  {
    "city": "Blaževo",
    "zip": 37226
  },
  {
    "city": "Blace",
    "zip": 18420
  },
  {
    "city": "Bobovo",
    "zip": 35217
  },
  {
    "city": "Bogaraš",
    "zip": 24408
  },
  {
    "city": "Bogatić",
    "zip": 15350
  },
  {
    "city": "Bogovađa",
    "zip": 14225
  },
  {
    "city": "Bogovina",
    "zip": 19372
  },
  {
    "city": "Bogojevo",
    "zip": 25245
  },
  {
    "city": "Bogojevce",
    "zip": 16254
  },
  {
    "city": "Bogutovac",
    "zip": 36341
  },
  {
    "city": "Bođani",
    "zip": 21427
  },
  {
    "city": "Boževac",
    "zip": 12313
  },
  {
    "city": "Božetići",
    "zip": 31322
  },
  {
    "city": "Božica",
    "zip": 17537
  },
  {
    "city": "Bojnik",
    "zip": 16205
  },
  {
    "city": "Boka",
    "zip": 23252
  },
  {
    "city": "Boljevac",
    "zip": 19370
  },
  {
    "city": "Boljkovci",
    "zip": 32312
  },
  {
    "city": "Bor",
    "zip": 19210
  },
  {
    "city": "Borski Brestovac",
    "zip": 19229
  },
  {
    "city": "Bosilegrad",
    "zip": 17540
  },
  {
    "city": "Bosut",
    "zip": 22217
  },
  {
    "city": "Botoš",
    "zip": 23243
  },
  {
    "city": "Bočar",
    "zip": 23274
  },
  {
    "city": "Bošnjane",
    "zip": 37262
  },
  {
    "city": "Bošnjace",
    "zip": 16232
  },
  {
    "city": "Bradarac",
    "zip": 12206
  },
  {
    "city": "Braničevo",
    "zip": 12222
  },
  {
    "city": "Brankovina",
    "zip": 14201
  },
  {
    "city": "Bratljevo",
    "zip": 32256
  },
  {
    "city": "Braćevac",
    "zip": 19315
  },
  {
    "city": "Brvenik",
    "zip": 36346
  },
  {
    "city": "Brgule",
    "zip": 14212
  },
  {
    "city": "Brđani",
    "zip": 32303
  },
  {
    "city": "Brežđe",
    "zip": 14244
  },
  {
    "city": "Brezjak",
    "zip": 15309
  },
  {
    "city": "Brezna",
    "zip": 32307
  },
  {
    "city": "Brezova",
    "zip": 32253
  },
  {
    "city": "Brezovica",
    "zip": 38157
  },
  {
    "city": "Brekovo",
    "zip": 31234
  },
  {
    "city": "Bresnica",
    "zip": 32213
  },
  {
    "city": "Brestovac",
    "zip": 16253
  },
  {
    "city": "Brestovačka Banja",
    "zip": 19216
  },
  {
    "city": "Brza Palanka",
    "zip": 19323
  },
  {
    "city": "Brzi Brod",
    "zip": 18116
  },
  {
    "city": "Brzan",
    "zip": 34228
  },
  {
    "city": "Brzeće",
    "zip": 37225
  },
  {
    "city": "Brodarevo",
    "zip": 31305
  },
  {
    "city": "Brus",
    "zip": 37220
  },
  {
    "city": "Brusnik",
    "zip": 19313
  },
  {
    "city": "Budisava",
    "zip": 21242
  },
  {
    "city": "Buđanovci",
    "zip": 22421
  },
  {
    "city": "Bujanovac",
    "zip": 17520
  },
  {
    "city": "Bukovac",
    "zip": 21209
  },
  {
    "city": "Bukovik",
    "zip": 34301
  },
  {
    "city": "Bukovica",
    "zip": 32251
  },
  {
    "city": "Bukorovac",
    "zip": 34217
  },
  {
    "city": "Bunar",
    "zip": 35273
  },
  {
    "city": "Burdimo",
    "zip": 18368
  },
  {
    "city": "Burovac",
    "zip": 12307
  },
  {
    "city": "Busilovac",
    "zip": 35249
  },
  {
    "city": "Bučje",
    "zip": 19369
  },
  {
    "city": "Vajska",
    "zip": 21426
  },
  {
    "city": "Valjevo",
    "zip": 14000
  },
  {
    "city": "Varvarin",
    "zip": 37260
  },
  {
    "city": "Varda",
    "zip": 31263
  },
  {
    "city": "Varna",
    "zip": 15232
  },
  {
    "city": "Varoš",
    "zip": 18363
  },
  {
    "city": "Vasilj",
    "zip": 19367
  },
  {
    "city": "Vatin",
    "zip": 26337
  },
  {
    "city": "Vašica",
    "zip": 22241
  },
  {
    "city": "Velebit",
    "zip": 24428
  },
  {
    "city": "Velesnica",
    "zip": 19328
  },
  {
    "city": "Velika Vrbnica",
    "zip": 37233
  },
  {
    "city": "Velika Grabovnica",
    "zip": 16221
  },
  {
    "city": "Velika Greda",
    "zip": 26366
  },
  {
    "city": "Velika Drenova",
    "zip": 37245
  },
  {
    "city": "Velika Ivanča",
    "zip": 11414
  },
  {
    "city": "Velika Jasikova",
    "zip": 19235
  },
  {
    "city": "Velika Krsna",
    "zip": 11408
  },
  {
    "city": "Velika Lomnica",
    "zip": 37209
  },
  {
    "city": "Velika Moštanica",
    "zip": 11262
  },
  {
    "city": "Velika Plana",
    "zip": 11320
  },
  {
    "city": "Velika Plana",
    "zip": 18403
  },
  {
    "city": "Velika Reka",
    "zip": 15322
  },
  {
    "city": "Veliki Borak",
    "zip": 11462
  },
  {
    "city": "Veliki Gaj",
    "zip": 26365
  },
  {
    "city": "Veliki Izvor",
    "zip": 19206
  },
  {
    "city": "Veliki Popović",
    "zip": 35223
  },
  {
    "city": "Veliki Radinci",
    "zip": 22211
  },
  {
    "city": "Veliki Trnovac",
    "zip": 17528
  },
  {
    "city": "Veliki Crljeni",
    "zip": 11563
  },
  {
    "city": "Veliki Šiljegovac",
    "zip": 37204
  },
  {
    "city": "Veliko Bonjince",
    "zip": 18215
  },
  {
    "city": "Veliko Gradište",
    "zip": 12220
  },
  {
    "city": "Veliko Laole",
    "zip": 12306
  },
  {
    "city": "Veliko Orašje",
    "zip": 11323
  },
  {
    "city": "Veliko Središte",
    "zip": 26334
  },
  {
    "city": "Venčane",
    "zip": 34306
  },
  {
    "city": "Veternik",
    "zip": 21203
  },
  {
    "city": "Vilovo",
    "zip": 21246
  },
  {
    "city": "Vina",
    "zip": 19368
  },
  {
    "city": "Vionica",
    "zip": 32254
  },
  {
    "city": "Visočka Ržana",
    "zip": 18306
  },
  {
    "city": "Vitanovac",
    "zip": 36206
  },
  {
    "city": "Vitkovac",
    "zip": 36207
  },
  {
    "city": "Vitoševac",
    "zip": 37213
  },
  {
    "city": "Viča",
    "zip": 32233
  },
  {
    "city": "Višnjevac",
    "zip": 24222
  },
  {
    "city": "Višnjićevo",
    "zip": 22246
  },
  {
    "city": "Vladimirovac",
    "zip": 26315
  },
  {
    "city": "Vladimirci",
    "zip": 15225
  },
  {
    "city": "Vladičin Han",
    "zip": 17510
  },
  {
    "city": "Vlajkovac",
    "zip": 26332
  },
  {
    "city": "Vlase",
    "zip": 17507
  },
  {
    "city": "Vlasotince",
    "zip": 16210
  },
  {
    "city": "Vlaška",
    "zip": 11406
  },
  {
    "city": "Voganj",
    "zip": 22429
  },
  {
    "city": "Vodanj",
    "zip": 11328
  },
  {
    "city": "Vojvoda Stepa",
    "zip": 23219
  },
  {
    "city": "Vojvodinci",
    "zip": 26338
  },
  {
    "city": "Vojka",
    "zip": 22313
  },
  {
    "city": "Vojska",
    "zip": 35208
  },
  {
    "city": "Voluja",
    "zip": 12256
  },
  {
    "city": "Vražogrnac",
    "zip": 19312
  },
  {
    "city": "Vranić",
    "zip": 11427
  },
  {
    "city": "Vranovo",
    "zip": 11329
  },
  {
    "city": "Vranje",
    "zip": 17501
  },
  {
    "city": "Vranjska Banja",
    "zip": 17541
  },
  {
    "city": "Vratarnica",
    "zip": 19344
  },
  {
    "city": "Vraćevšnica",
    "zip": 32315
  },
  {
    "city": "Vračev Gaj",
    "zip": 26348
  },
  {
    "city": "Vrba",
    "zip": 36214
  },
  {
    "city": "Vrbas",
    "zip": 21460
  },
  {
    "city": "Vrbica",
    "zip": 23329
  },
  {
    "city": "Vrbovac",
    "zip": 38263
  },
  {
    "city": "Vrdnik",
    "zip": 22408
  },
  {
    "city": "Vreoci",
    "zip": 11560
  },
  {
    "city": "Vrmdža",
    "zip": 18236
  },
  {
    "city": "Vrnjačka Banja",
    "zip": 36210
  },
  {
    "city": "Vrnjci",
    "zip": 36217
  },
  {
    "city": "Vrćenovica",
    "zip": 18221
  },
  {
    "city": "Vrhpolje",
    "zip": 15324
  },
  {
    "city": "Vršac",
    "zip": 26300
  },
  {
    "city": "Vukovac",
    "zip": 12318
  },
  {
    "city": "Vučje",
    "zip": 16203
  },
  {
    "city": "Gaj",
    "zip": 26223
  },
  {
    "city": "Gajdobra",
    "zip": 21432
  },
  {
    "city": "Gakovo",
    "zip": 25282
  },
  {
    "city": "Gamzigradska Banja",
    "zip": 19228
  },
  {
    "city": "Gardinovci",
    "zip": 21247
  },
  {
    "city": "Gadžin Han",
    "zip": 18240
  },
  {
    "city": "Gibarac",
    "zip": 22258
  },
  {
    "city": "Glavinci",
    "zip": 35261
  },
  {
    "city": "Globoder",
    "zip": 37251
  },
  {
    "city": "Glogovac",
    "zip": 35222
  },
  {
    "city": "Glogonj",
    "zip": 26202
  },
  {
    "city": "Gložan",
    "zip": 21412
  },
  {
    "city": "Glušci",
    "zip": 15356
  },
  {
    "city": "Gnjilan",
    "zip": 18309
  },
  {
    "city": "Golobok",
    "zip": 11316
  },
  {
    "city": "Golubac",
    "zip": 12223
  },
  {
    "city": "Golubinci",
    "zip": 22308
  },
  {
    "city": "Goračići",
    "zip": 32232
  },
  {
    "city": "Gornja Dobrinja",
    "zip": 31214
  },
  {
    "city": "Gornja Draguša",
    "zip": 18425
  },
  {
    "city": "Gornja Lisina",
    "zip": 17538
  },
  {
    "city": "Gornja Sabanta",
    "zip": 34206
  },
  {
    "city": "Gornja Toplica",
    "zip": 14243
  },
  {
    "city": "Gornja Toponica",
    "zip": 18202
  },
  {
    "city": "Gornja Trepča",
    "zip": 32215
  },
  {
    "city": "Gornja Trnava",
    "zip": 34324
  },
  {
    "city": "Gornje Dvorane",
    "zip": 37206
  },
  {
    "city": "Gornji Barbeš",
    "zip": 18241
  },
  {
    "city": "Gornji Breg",
    "zip": 24406
  },
  {
    "city": "Gornji Matejevac",
    "zip": 18204
  },
  {
    "city": "Gornji Milanovac",
    "zip": 32300
  },
  {
    "city": "Gornji Stepoš",
    "zip": 37221
  },
  {
    "city": "Gornji Stupanj",
    "zip": 37234
  },
  {
    "city": "Gospođinci",
    "zip": 21237
  },
  {
    "city": "Gostun",
    "zip": 31308
  },
  {
    "city": "Grabovac",
    "zip": 11508
  },
  {
    "city": "Grabovica",
    "zip": 19327
  },
  {
    "city": "Grabovci",
    "zip": 22423
  },
  {
    "city": "Gradskovo",
    "zip": 19205
  },
  {
    "city": "Gračanica",
    "zip": 38205
  },
  {
    "city": "Grgurevci",
    "zip": 22213
  },
  {
    "city": "Grdelica",
    "zip": 16220
  },
  {
    "city": "Grebenac",
    "zip": 26347
  },
  {
    "city": "Grlište",
    "zip": 19342
  },
  {
    "city": "Grljan",
    "zip": 19341
  },
  {
    "city": "Grošnica",
    "zip": 34202
  },
  {
    "city": "Gruža",
    "zip": 34230
  },
  {
    "city": "Guberevac",
    "zip": 16211
  },
  {
    "city": "Guberevac",
    "zip": 34232
  },
  {
    "city": "Gudurica",
    "zip": 26335
  },
  {
    "city": "Gunaroš",
    "zip": 24312
  },
  {
    "city": "Guča",
    "zip": 32230
  },
  {
    "city": "Guševac",
    "zip": 18208
  },
  {
    "city": "Darosava",
    "zip": 34305
  },
  {
    "city": "Debeljača",
    "zip": 26214
  },
  {
    "city": "Debrc",
    "zip": 15214
  },
  {
    "city": "Devojački Bunar",
    "zip": 26316
  },
  {
    "city": "Deževa",
    "zip": 36305
  },
  {
    "city": "Deliblato",
    "zip": 26225
  },
  {
    "city": "Delimeđe",
    "zip": 36307
  },
  {
    "city": "Deronje",
    "zip": 25254
  },
  {
    "city": "Desimirovac",
    "zip": 34321
  },
  {
    "city": "Despotovac",
    "zip": 35213
  },
  {
    "city": "Despotovo",
    "zip": 21468
  },
  {
    "city": "Deč",
    "zip": 22441
  },
  {
    "city": "Divljaka",
    "zip": 31236
  },
  {
    "city": "Divostin",
    "zip": 34204
  },
  {
    "city": "Divoš",
    "zip": 22232
  },
  {
    "city": "Divci",
    "zip": 14222
  },
  {
    "city": "Divčibare",
    "zip": 14204
  },
  {
    "city": "Dimitrovgrad",
    "zip": 18320
  },
  {
    "city": "Dobra",
    "zip": 12224
  },
  {
    "city": "Dobri Do",
    "zip": 18408
  },
  {
    "city": "Dobrinci",
    "zip": 22412
  },
  {
    "city": "Dobrić",
    "zip": 15235
  },
  {
    "city": "Dobrica",
    "zip": 26354
  },
  {
    "city": "Dolac",
    "zip": 18314
  },
  {
    "city": "Dolovo",
    "zip": 26227
  },
  {
    "city": "Doljevac",
    "zip": 18410
  },
  {
    "city": "Donja Bela Reka",
    "zip": 19213
  },
  {
    "city": "Donja Borina",
    "zip": 15317
  },
  {
    "city": "Donja Gušterica",
    "zip": 38207
  },
  {
    "city": "Donja Kamenica",
    "zip": 19352
  },
  {
    "city": "Donja Ljubata",
    "zip": 17544
  },
  {
    "city": "Donja Mutnica",
    "zip": 35255
  },
  {
    "city": "Donja Orovica",
    "zip": 15323
  },
  {
    "city": "Donja Rečica",
    "zip": 18404
  },
  {
    "city": "Donja Trnava",
    "zip": 18421
  },
  {
    "city": "Donja Šatornja",
    "zip": 34314
  },
  {
    "city": "Donje Vidovo",
    "zip": 35258
  },
  {
    "city": "Donje Zuniče",
    "zip": 19345
  },
  {
    "city": "Donje Međurovo",
    "zip": 18254
  },
  {
    "city": "Donje Crnatovo",
    "zip": 18414
  },
  {
    "city": "Donje Crniljevo",
    "zip": 15227
  },
  {
    "city": "Donji Dušnik",
    "zip": 18242
  },
  {
    "city": "Donji Krčin",
    "zip": 37258
  },
  {
    "city": "Donji Milanovac",
    "zip": 19220
  },
  {
    "city": "Donji Stajevac",
    "zip": 17526
  },
  {
    "city": "Doroslovo",
    "zip": 25243
  },
  {
    "city": "Draginac",
    "zip": 15311
  },
  {
    "city": "Draginje",
    "zip": 15226
  },
  {
    "city": "Draglica",
    "zip": 31317
  },
  {
    "city": "Dragobraća",
    "zip": 34231
  },
  {
    "city": "Dragovo",
    "zip": 35265
  },
  {
    "city": "Dragolj",
    "zip": 32316
  },
  {
    "city": "Dragocvet",
    "zip": 35272
  },
  {
    "city": "Dragoševac",
    "zip": 35262
  },
  {
    "city": "Draževac",
    "zip": 11506
  },
  {
    "city": "Draževac",
    "zip": 18223
  },
  {
    "city": "Drajkovce",
    "zip": 38239
  },
  {
    "city": "Dračić",
    "zip": 14203
  },
  {
    "city": "Drenovac",
    "zip": 15212
  },
  {
    "city": "Drenovac",
    "zip": 35257
  },
  {
    "city": "Drugovac",
    "zip": 11432
  },
  {
    "city": "Dublje",
    "zip": 15359
  },
  {
    "city": "Dubovac",
    "zip": 26224
  },
  {
    "city": "Dubovo",
    "zip": 18406
  },
  {
    "city": "Duboka",
    "zip": 12255
  },
  {
    "city": "Duboka",
    "zip": 35218
  },
  {
    "city": "Dubočane",
    "zip": 19232
  },
  {
    "city": "Dubravica",
    "zip": 12207
  },
  {
    "city": "Duga Poljana",
    "zip": 36312
  },
  {
    "city": "Dugo Polje",
    "zip": 18237
  },
  {
    "city": "Dudovica",
    "zip": 11561
  },
  {
    "city": "Dupljaja",
    "zip": 26328
  },
  {
    "city": "Đala",
    "zip": 23335
  },
  {
    "city": "Đunis",
    "zip": 37202
  },
  {
    "city": "Đurđevo",
    "zip": 21239
  },
  {
    "city": "Đurđin",
    "zip": 24213
  },
  {
    "city": "Elemir",
    "zip": 23208
  },
  {
    "city": "Erdevik",
    "zip": 22230
  },
  {
    "city": "Erdeč",
    "zip": 34207
  },
  {
    "city": "Ečka",
    "zip": 23203
  },
  {
    "city": "Žabalj",
    "zip": 21230
  },
  {
    "city": "Žabari",
    "zip": 12374
  },
  {
    "city": "Žagubica",
    "zip": 12320
  },
  {
    "city": "Željuše",
    "zip": 18325
  },
  {
    "city": "Žirovnica",
    "zip": 34229
  },
  {
    "city": "Žitište",
    "zip": 23210
  },
  {
    "city": "Žitkovac",
    "zip": 18210
  },
  {
    "city": "Žitni Potok",
    "zip": 18407
  },
  {
    "city": "Žitorađa",
    "zip": 18412
  },
  {
    "city": "Žiča",
    "zip": 36221
  },
  {
    "city": "Žuč",
    "zip": 18438
  },
  {
    "city": "Zablaće",
    "zip": 32223
  },
  {
    "city": "Zabojnica",
    "zip": 34244
  },
  {
    "city": "Zabrežje",
    "zip": 11505
  },
  {
    "city": "Zavlaka",
    "zip": 15312
  },
  {
    "city": "Zagajica",
    "zip": 26344
  },
  {
    "city": "Zajača",
    "zip": 15315
  },
  {
    "city": "Zaječar",
    "zip": 19000
  },
  {
    "city": "Zaplanjska Toponica",
    "zip": 18244
  },
  {
    "city": "Zasavica",
    "zip": 22201
  },
  {
    "city": "Zvezdan",
    "zip": 19227
  },
  {
    "city": "Zvečan",
    "zip": 38227
  },
  {
    "city": "Zvonce",
    "zip": 18333
  },
  {
    "city": "Zdravinje",
    "zip": 37203
  },
  {
    "city": "Zlatibor",
    "zip": 31315
  },
  {
    "city": "Zlatica",
    "zip": 23255
  },
  {
    "city": "Zlodol",
    "zip": 31253
  },
  {
    "city": "Zlot",
    "zip": 19215
  },
  {
    "city": "Zmajevo",
    "zip": 21213
  },
  {
    "city": "Zminjak",
    "zip": 15352
  },
  {
    "city": "Zrenjanin",
    "zip": 23000
  },
  {
    "city": "Zubin Potok",
    "zip": 38228
  },
  {
    "city": "Zuce",
    "zip": 11225
  },
  {
    "city": "Ivanovo",
    "zip": 26233
  },
  {
    "city": "Ivanjica",
    "zip": 32250
  },
  {
    "city": "Idvor",
    "zip": 26207
  },
  {
    "city": "Iđoš",
    "zip": 23323
  },
  {
    "city": "Izbište",
    "zip": 26343
  },
  {
    "city": "Ilandža",
    "zip": 26352
  },
  {
    "city": "Ilinci",
    "zip": 22250
  },
  {
    "city": "Ilićevo",
    "zip": 34203
  },
  {
    "city": "Inđija",
    "zip": 22320
  },
  {
    "city": "Irig",
    "zip": 22406
  },
  {
    "city": "Jabuka",
    "zip": 26201
  },
  {
    "city": "Jabuka",
    "zip": 31306
  },
  {
    "city": "Jabukovac",
    "zip": 19304
  },
  {
    "city": "Jabučje",
    "zip": 14226
  },
  {
    "city": "Jagnjilo",
    "zip": 11412
  },
  {
    "city": "Jagodina",
    "zip": 35000
  },
  {
    "city": "Jadranska Lešnica",
    "zip": 15308
  },
  {
    "city": "Jazak",
    "zip": 22409
  },
  {
    "city": "Jazovo",
    "zip": 23327
  },
  {
    "city": "Jamena",
    "zip": 22248
  },
  {
    "city": "Jankov Most",
    "zip": 23201
  },
  {
    "city": "Janošik",
    "zip": 26362
  },
  {
    "city": "Jarak",
    "zip": 22426
  },
  {
    "city": "Jarkovac",
    "zip": 23250
  },
  {
    "city": "Jarmenovci",
    "zip": 34318
  },
  {
    "city": "Jasenovo",
    "zip": 26346
  },
  {
    "city": "Jasenovo",
    "zip": 31319
  },
  {
    "city": "Jasenovo",
    "zip": 35241
  },
  {
    "city": "Jasika",
    "zip": 37252
  },
  {
    "city": "Jasikovica",
    "zip": 37247
  },
  {
    "city": "Jasikovo",
    "zip": 19256
  },
  {
    "city": "Jaša Tomić",
    "zip": 23230
  },
  {
    "city": "Ježevica",
    "zip": 31213
  },
  {
    "city": "Ježevica",
    "zip": 32222
  },
  {
    "city": "Jelašnica",
    "zip": 17531
  },
  {
    "city": "Jelašnica",
    "zip": 18206
  },
  {
    "city": "Jelen Do",
    "zip": 31215
  },
  {
    "city": "Jelovik",
    "zip": 34309
  },
  {
    "city": "Jermenovci",
    "zip": 26363
  },
  {
    "city": "Jovanovac",
    "zip": 18258
  },
  {
    "city": "Jovanovac",
    "zip": 34211
  },
  {
    "city": "Jovac",
    "zip": 35205
  },
  {
    "city": "Jošanica",
    "zip": 18234
  },
  {
    "city": "Jošanička Banja",
    "zip": 36345
  },
  {
    "city": "Jugbogdanovac",
    "zip": 18253
  },
  {
    "city": "Junkovac",
    "zip": 11562
  },
  {
    "city": "Kalna",
    "zip": 19353
  },
  {
    "city": "Kaluđerica",
    "zip": 11130
  },
  {
    "city": "Kamenica",
    "zip": 14252
  },
  {
    "city": "Kamenica",
    "zip": 15222
  },
  {
    "city": "Kamenica",
    "zip": 18324
  },
  {
    "city": "Kanjiža",
    "zip": 24420
  },
  {
    "city": "Kaona",
    "zip": 32234
  },
  {
    "city": "Kaonik",
    "zip": 37256
  },
  {
    "city": "Karavukovo",
    "zip": 25255
  },
  {
    "city": "Karađorđevo",
    "zip": 21421
  },
  {
    "city": "Karađorđevo",
    "zip": 24308
  },
  {
    "city": "Karan",
    "zip": 31204
  },
  {
    "city": "Karlovčić",
    "zip": 22443
  },
  {
    "city": "Katun",
    "zip": 18225
  },
  {
    "city": "Kać",
    "zip": 21241
  },
  {
    "city": "Kačarevo",
    "zip": 26212
  },
  {
    "city": "Kevi",
    "zip": 24407
  },
  {
    "city": "Kelebija",
    "zip": 24104
  },
  {
    "city": "Kelebija gran. prelaz",
    "zip": 24205
  },
  {
    "city": "Kikinda",
    "zip": 23300
  },
  {
    "city": "Kisač",
    "zip": 21211
  },
  {
    "city": "Kladovo",
    "zip": 19320
  },
  {
    "city": "Klek",
    "zip": 23211
  },
  {
    "city": "Klenak",
    "zip": 22424
  },
  {
    "city": "Klenike",
    "zip": 17524
  },
  {
    "city": "Klenje",
    "zip": 12258
  },
  {
    "city": "Klenje",
    "zip": 15357
  },
  {
    "city": "Klisura",
    "zip": 17535
  },
  {
    "city": "Kličevac",
    "zip": 12209
  },
  {
    "city": "Klokočevac",
    "zip": 19222
  },
  {
    "city": "Kljajićevo",
    "zip": 25221
  },
  {
    "city": "Knić",
    "zip": 34240
  },
  {
    "city": "Knićanin",
    "zip": 23265
  },
  {
    "city": "Knjaževac",
    "zip": 19350
  },
  {
    "city": "Kobišnica",
    "zip": 19316
  },
  {
    "city": "Kovačevac",
    "zip": 11409
  },
  {
    "city": "Kovačica",
    "zip": 26210
  },
  {
    "city": "Kovilj",
    "zip": 21243
  },
  {
    "city": "Kovin",
    "zip": 26220
  },
  {
    "city": "Kokin Brod",
    "zip": 31318
  },
  {
    "city": "Kolare",
    "zip": 35242
  },
  {
    "city": "Kolari",
    "zip": 11431
  },
  {
    "city": "Kolut",
    "zip": 25274
  },
  {
    "city": "Komirić",
    "zip": 14254
  },
  {
    "city": "Konak",
    "zip": 23253
  },
  {
    "city": "Konarevo",
    "zip": 36340
  },
  {
    "city": "Končarevo",
    "zip": 35219
  },
  {
    "city": "Konjuh",
    "zip": 37254
  },
  {
    "city": "Kopaonik",
    "zip": 36354
  },
  {
    "city": "Koprivnica",
    "zip": 19223
  },
  {
    "city": "Koraćica",
    "zip": 11415
  },
  {
    "city": "Korbevac",
    "zip": 17545
  },
  {
    "city": "Korbovo",
    "zip": 19329
  },
  {
    "city": "Korenita",
    "zip": 15302
  },
  {
    "city": "Korman",
    "zip": 18216
  },
  {
    "city": "Korman",
    "zip": 34224
  },
  {
    "city": "Kosančić",
    "zip": 16206
  },
  {
    "city": "Kosjerić",
    "zip": 31260
  },
  {
    "city": "Kosovo Polje",
    "zip": 38210
  },
  {
    "city": "Kosovska Kamenica",
    "zip": 38260
  },
  {
    "city": "Kosovska Mitrovica",
    "zip": 38220
  },
  {
    "city": "Kostojevići",
    "zip": 31254
  },
  {
    "city": "Kostolac",
    "zip": 12208
  },
  {
    "city": "Kotraža",
    "zip": 32235
  },
  {
    "city": "Koceljeva",
    "zip": 15220
  },
  {
    "city": "Kragujevac",
    "zip": 34000
  },
  {
    "city": "Krajišnik",
    "zip": 23231
  },
  {
    "city": "Kraljevo",
    "zip": 36000
  },
  {
    "city": "Kraljevci",
    "zip": 22411
  },
  {
    "city": "Kremna",
    "zip": 31242
  },
  {
    "city": "Krepoljin",
    "zip": 12316
  },
  {
    "city": "Kriva Feja",
    "zip": 17543
  },
  {
    "city": "Krivaja",
    "zip": 24341
  },
  {
    "city": "Krivelj",
    "zip": 19219
  },
  {
    "city": "Krivi Vir",
    "zip": 19375
  },
  {
    "city": "Krnjevo",
    "zip": 11319
  },
  {
    "city": "Krnješevci",
    "zip": 22314
  },
  {
    "city": "Krupanj",
    "zip": 15314
  },
  {
    "city": "Krupac",
    "zip": 18307
  },
  {
    "city": "Krušar",
    "zip": 35227
  },
  {
    "city": "Kruševac",
    "zip": 37000
  },
  {
    "city": "Kruševica",
    "zip": 18409
  },
  {
    "city": "Krušedol",
    "zip": 22328
  },
  {
    "city": "Kruščić",
    "zip": 25225
  },
  {
    "city": "Krčedin",
    "zip": 22325
  },
  {
    "city": "Kuzmin",
    "zip": 22223
  },
  {
    "city": "Kukljin",
    "zip": 37255
  },
  {
    "city": "Kukujevci",
    "zip": 22224
  },
  {
    "city": "Kula",
    "zip": 25230
  },
  {
    "city": "Kulina",
    "zip": 18214
  },
  {
    "city": "Kulpin",
    "zip": 21472
  },
  {
    "city": "Kumane",
    "zip": 23271
  },
  {
    "city": "Kupinik",
    "zip": 26368
  },
  {
    "city": "Kupinovo",
    "zip": 22419
  },
  {
    "city": "Kupusina",
    "zip": 25262
  },
  {
    "city": "Kupci",
    "zip": 37222
  },
  {
    "city": "Kuršumlija",
    "zip": 18430
  },
  {
    "city": "Kuršumlijska Banja",
    "zip": 18435
  },
  {
    "city": "Kusadak",
    "zip": 11425
  },
  {
    "city": "Kusić",
    "zip": 26349
  },
  {
    "city": "Kucura",
    "zip": 21466
  },
  {
    "city": "Kučevo",
    "zip": 12240
  },
  {
    "city": "Kušiljevo",
    "zip": 35226
  },
  {
    "city": "Kušići",
    "zip": 32258
  },
  {
    "city": "Kuštilj",
    "zip": 26336
  },
  {
    "city": "Lađevci",
    "zip": 36204
  },
  {
    "city": "Lazarevac",
    "zip": 11550
  },
  {
    "city": "Lazarevo",
    "zip": 23241
  },
  {
    "city": "Laznica",
    "zip": 12321
  },
  {
    "city": "Lajkovac",
    "zip": 14224
  },
  {
    "city": "Lalinac",
    "zip": 18256
  },
  {
    "city": "Lalinac",
    "zip": 18201
  },
  {
    "city": "Lalić",
    "zip": 25234
  },
  {
    "city": "Laplje Selo",
    "zip": 38204
  },
  {
    "city": "Lapovo",
    "zip": 34221
  },
  {
    "city": "Lapovo (Varoš)",
    "zip": 34220
  },
  {
    "city": "Laćarak",
    "zip": 22221
  },
  {
    "city": "Lebane",
    "zip": 16230
  },
  {
    "city": "Ledinci",
    "zip": 21207
  },
  {
    "city": "Ležimir",
    "zip": 22207
  },
  {
    "city": "Lelić",
    "zip": 14205
  },
  {
    "city": "Lenovac",
    "zip": 19343
  },
  {
    "city": "Lepenac",
    "zip": 37224
  },
  {
    "city": "Lepenica",
    "zip": 17513
  },
  {
    "city": "Lepina",
    "zip": 38208
  },
  {
    "city": "Leposavić",
    "zip": 38218
  },
  {
    "city": "Leskovac",
    "zip": 16000
  },
  {
    "city": "Lece",
    "zip": 16248
  },
  {
    "city": "Lešak",
    "zip": 38219
  },
  {
    "city": "Lešnica",
    "zip": 15307
  },
  {
    "city": "Lipar",
    "zip": 25232
  },
  {
    "city": "Lipe",
    "zip": 11310
  },
  {
    "city": "Lipnički Šor",
    "zip": 15341
  },
  {
    "city": "Lipolist",
    "zip": 15305
  },
  {
    "city": "Lički Hanovi",
    "zip": 18245
  },
  {
    "city": "Lovćenac",
    "zip": 24322
  },
  {
    "city": "Loznica",
    "zip": 15300
  },
  {
    "city": "Lozovik",
    "zip": 11317
  },
  {
    "city": "Lok",
    "zip": 21248
  },
  {
    "city": "Lokve",
    "zip": 26361
  },
  {
    "city": "Loćika",
    "zip": 35274
  },
  {
    "city": "Lubnica",
    "zip": 19208
  },
  {
    "city": "Lug",
    "zip": 21315
  },
  {
    "city": "Lugavčina",
    "zip": 11321
  },
  {
    "city": "Lužnice",
    "zip": 34325
  },
  {
    "city": "Lukare",
    "zip": 36306
  },
  {
    "city": "Lukino Selo",
    "zip": 23224
  },
  {
    "city": "Lukićevo",
    "zip": 23261
  },
  {
    "city": "Lukovo",
    "zip": 19371
  },
  {
    "city": "Lukovska Banja",
    "zip": 18437
  },
  {
    "city": "Lunovo Selo",
    "zip": 31203
  },
  {
    "city": "Lučani",
    "zip": 32240
  },
  {
    "city": "Ljig",
    "zip": 14240
  },
  {
    "city": "Ljuba",
    "zip": 22255
  },
  {
    "city": "Ljuberađa",
    "zip": 18217
  },
  {
    "city": "Ljubiš",
    "zip": 31209
  },
  {
    "city": "Ljubovija",
    "zip": 15320
  },
  {
    "city": "Ljukovo",
    "zip": 22321
  },
  {
    "city": "Ljutovo",
    "zip": 24215
  },
  {
    "city": "Maglić",
    "zip": 21473
  },
  {
    "city": "Majdan",
    "zip": 23333
  },
  {
    "city": "Majdanpek",
    "zip": 19250
  },
  {
    "city": "Majilovac",
    "zip": 12221
  },
  {
    "city": "Majur",
    "zip": 15353
  },
  {
    "city": "Majur",
    "zip": 35270
  },
  {
    "city": "Mala Bosna",
    "zip": 24217
  },
  {
    "city": "Mala Krsna",
    "zip": 11313
  },
  {
    "city": "Mala Moštanica",
    "zip": 11261
  },
  {
    "city": "Mala Plana",
    "zip": 18423
  },
  {
    "city": "Male Pijace",
    "zip": 24416
  },
  {
    "city": "Male Pčelice",
    "zip": 34216
  },
  {
    "city": "Mali Beograd",
    "zip": 24309
  },
  {
    "city": "Mali Zvornik",
    "zip": 15318
  },
  {
    "city": "Mali Iđoš",
    "zip": 24321
  },
  {
    "city": "Mali Izvor",
    "zip": 19347
  },
  {
    "city": "Mali Jasenovac",
    "zip": 19209
  },
  {
    "city": "Mali Požarevac",
    "zip": 11235
  },
  {
    "city": "Malo Krčmare",
    "zip": 34212
  },
  {
    "city": "Malo Crniće",
    "zip": 12311
  },
  {
    "city": "Malošište",
    "zip": 18415
  },
  {
    "city": "Malča",
    "zip": 18207
  },
  {
    "city": "Manđelos",
    "zip": 22208
  },
  {
    "city": "Manojlovce",
    "zip": 16201
  },
  {
    "city": "Maradik",
    "zip": 22327
  },
  {
    "city": "Margita",
    "zip": 26364
  },
  {
    "city": "Markovac",
    "zip": 11325
  },
  {
    "city": "Markovica",
    "zip": 32243
  },
  {
    "city": "Martinci",
    "zip": 22222
  },
  {
    "city": "Martonoš",
    "zip": 24417
  },
  {
    "city": "Maršić",
    "zip": 34209
  },
  {
    "city": "Mataruška Banja",
    "zip": 36201
  },
  {
    "city": "Mačvanska Mitrovica",
    "zip": 22202
  },
  {
    "city": "Mačvanski Pričinović",
    "zip": 15211
  },
  {
    "city": "Mačkat",
    "zip": 31312
  },
  {
    "city": "Medveđa",
    "zip": 16240
  },
  {
    "city": "Medveđa",
    "zip": 35224
  },
  {
    "city": "Medveđa",
    "zip": 37244
  },
  {
    "city": "Medoševac",
    "zip": 18209
  },
  {
    "city": "Međa",
    "zip": 23234
  },
  {
    "city": "Međulužje",
    "zip": 11405
  },
  {
    "city": "Međurečje",
    "zip": 32255
  },
  {
    "city": "Melenci",
    "zip": 23270
  },
  {
    "city": "Melenci-Rusanda",
    "zip": 23269
  },
  {
    "city": "Meljak",
    "zip": 11426
  },
  {
    "city": "Merdare",
    "zip": 18445
  },
  {
    "city": "Merošina",
    "zip": 18252
  },
  {
    "city": "Merćez",
    "zip": 18436
  },
  {
    "city": "Metlić",
    "zip": 15233
  },
  {
    "city": "Metovnica",
    "zip": 19204
  },
  {
    "city": "Mijatovac",
    "zip": 35236
  },
  {
    "city": "Milatovac",
    "zip": 34222
  },
  {
    "city": "Milentija",
    "zip": 37227
  },
  {
    "city": "Miletićevo",
    "zip": 26373
  },
  {
    "city": "Mileševo",
    "zip": 21227
  },
  {
    "city": "Miloševac",
    "zip": 11318
  },
  {
    "city": "Miloševo",
    "zip": 35268
  },
  {
    "city": "Milutovac",
    "zip": 37246
  },
  {
    "city": "Minićevo",
    "zip": 19340
  },
  {
    "city": "Mionica",
    "zip": 14242
  },
  {
    "city": "Mirosaljci",
    "zip": 11567
  },
  {
    "city": "Miroševce",
    "zip": 16204
  },
  {
    "city": "Mitrovac",
    "zip": 31251
  },
  {
    "city": "Mihajlovac",
    "zip": 11312
  },
  {
    "city": "Mihajlovac",
    "zip": 19322
  },
  {
    "city": "Mihajlovo",
    "zip": 23202
  },
  {
    "city": "Mišićevo",
    "zip": 24211
  },
  {
    "city": "Mladenovac",
    "zip": 11400
  },
  {
    "city": "Mladenovo",
    "zip": 21422
  },
  {
    "city": "Mozgovo",
    "zip": 18229
  },
  {
    "city": "Mokra Gora",
    "zip": 31243
  },
  {
    "city": "Mokrin",
    "zip": 23305
  },
  {
    "city": "Mol",
    "zip": 24435
  },
  {
    "city": "Molovin",
    "zip": 22256
  },
  {
    "city": "Morović",
    "zip": 22245
  },
  {
    "city": "Mošorin",
    "zip": 21245
  },
  {
    "city": "Mramor",
    "zip": 18251
  },
  {
    "city": "Mramorak",
    "zip": 26226
  },
  {
    "city": "Mrčajevci",
    "zip": 32210
  },
  {
    "city": "Mršinci",
    "zip": 32224
  },
  {
    "city": "Mužlja",
    "zip": 23206
  },
  {
    "city": "Muhovac",
    "zip": 17529
  },
  {
    "city": "Nadalj",
    "zip": 21216
  },
  {
    "city": "Nakovo",
    "zip": 23311
  },
  {
    "city": "Natalinci",
    "zip": 34313
  },
  {
    "city": "Negotin",
    "zip": 19300
  },
  {
    "city": "Neresnica",
    "zip": 12242
  },
  {
    "city": "Neuzina",
    "zip": 23245
  },
  {
    "city": "Neštin",
    "zip": 21314
  },
  {
    "city": "Nikinci",
    "zip": 22422
  },
  {
    "city": "Nikolinci",
    "zip": 26322
  },
  {
    "city": "Nikoličevo",
    "zip": 19311
  },
  {
    "city": "Niš",
    "zip": 18000
  },
  {
    "city": "Niševac",
    "zip": 18366
  },
  {
    "city": "Niška Banja",
    "zip": 18205
  },
  {
    "city": "Nova Varoš",
    "zip": 31320
  },
  {
    "city": "Nova Gajdobra",
    "zip": 21431
  },
  {
    "city": "Nova Pazova",
    "zip": 22330
  },
  {
    "city": "Nova Crvenka",
    "zip": 25224
  },
  {
    "city": "Nova Crnja",
    "zip": 23218
  },
  {
    "city": "Novi Banovci",
    "zip": 22304
  },
  {
    "city": "Novi Bečej",
    "zip": 23272
  },
  {
    "city": "Novi Bračin",
    "zip": 37216
  },
  {
    "city": "Novi Žednik",
    "zip": 24223
  },
  {
    "city": "Novi Itebej",
    "zip": 23236
  },
  {
    "city": "Novi Karlovci",
    "zip": 22322
  },
  {
    "city": "Novi Kneževac",
    "zip": 23330
  },
  {
    "city": "Novi Kozarci",
    "zip": 23313
  },
  {
    "city": "Novi Kozjak",
    "zip": 26353
  },
  {
    "city": "Novi Pazar",
    "zip": 36300
  },
  {
    "city": "Novi Sad",
    "zip": 21000
  },
  {
    "city": "Novi Slankamen",
    "zip": 22323
  },
  {
    "city": "Novo Miloševo",
    "zip": 23273
  },
  {
    "city": "Novo Orahovo",
    "zip": 24351
  },
  {
    "city": "Novo Selo",
    "zip": 18250
  },
  {
    "city": "Novo Selo",
    "zip": 36216
  },
  {
    "city": "Noćaj",
    "zip": 22203
  },
  {
    "city": "Obrež",
    "zip": 22417
  },
  {
    "city": "Obrež",
    "zip": 37266
  },
  {
    "city": "Obrenovac",
    "zip": 11500
  },
  {
    "city": "Obrovac",
    "zip": 21423
  },
  {
    "city": "Ovčar Banja",
    "zip": 32242
  },
  {
    "city": "Ogar",
    "zip": 22416
  },
  {
    "city": "Omoljica",
    "zip": 26230
  },
  {
    "city": "Oparić",
    "zip": 35267
  },
  {
    "city": "Opovo",
    "zip": 26204
  },
  {
    "city": "Orane",
    "zip": 16233
  },
  {
    "city": "Orašac",
    "zip": 34308
  },
  {
    "city": "Oreškovica",
    "zip": 12308
  },
  {
    "city": "Orid",
    "zip": 15213
  },
  {
    "city": "Orlovat",
    "zip": 23263
  },
  {
    "city": "Orom",
    "zip": 24207
  },
  {
    "city": "Osanica",
    "zip": 12317
  },
  {
    "city": "Osečina",
    "zip": 14253
  },
  {
    "city": "Osipaonica",
    "zip": 11314
  },
  {
    "city": "Ostojićevo",
    "zip": 23326
  },
  {
    "city": "Ostrovica",
    "zip": 18312
  },
  {
    "city": "Ostružnica",
    "zip": 11251
  },
  {
    "city": "Odžaci",
    "zip": 25250
  },
  {
    "city": "Oštrelj",
    "zip": 19226
  },
  {
    "city": "Pavliš",
    "zip": 26333
  },
  {
    "city": "Padež",
    "zip": 37257
  },
  {
    "city": "Padej",
    "zip": 23325
  },
  {
    "city": "Padina",
    "zip": 26215
  },
  {
    "city": "Palić",
    "zip": 24413
  },
  {
    "city": "Pambukovica",
    "zip": 14213
  },
  {
    "city": "Panonija",
    "zip": 24330
  },
  {
    "city": "Pančevo",
    "zip": 26000
  },
  {
    "city": "Parage",
    "zip": 21434
  },
  {
    "city": "Paraćin",
    "zip": 35250
  },
  {
    "city": "Parteš",
    "zip": 38251
  },
  {
    "city": "Parunovac",
    "zip": 37201
  },
  {
    "city": "Pasjane",
    "zip": 38266
  },
  {
    "city": "Pačir",
    "zip": 24342
  },
  {
    "city": "Pejkovac",
    "zip": 18413
  },
  {
    "city": "Pepeljevac",
    "zip": 37231
  },
  {
    "city": "Perlez",
    "zip": 23260
  },
  {
    "city": "Perućac",
    "zip": 31256
  },
  {
    "city": "Petlovača",
    "zip": 15304
  },
  {
    "city": "Petrovaradin",
    "zip": 21131
  },
  {
    "city": "Petrovac",
    "zip": 12300
  },
  {
    "city": "Pećinci",
    "zip": 22410
  },
  {
    "city": "Pecka",
    "zip": 14207
  },
  {
    "city": "Pečenjevce",
    "zip": 16251
  },
  {
    "city": "Pivnice",
    "zip": 21469
  },
  {
    "city": "Pinosava",
    "zip": 11226
  },
  {
    "city": "Pirot",
    "zip": 18300
  },
  {
    "city": "Plavna",
    "zip": 19307
  },
  {
    "city": "Plavna",
    "zip": 21428
  },
  {
    "city": "Plažane",
    "zip": 35212
  },
  {
    "city": "Plana",
    "zip": 35247
  },
  {
    "city": "Plandište",
    "zip": 26360
  },
  {
    "city": "Platičevo",
    "zip": 22420
  },
  {
    "city": "Plemetina",
    "zip": 38211
  },
  {
    "city": "Pleš",
    "zip": 37238
  },
  {
    "city": "Pločica",
    "zip": 26229
  },
  {
    "city": "Pobeda",
    "zip": 24313
  },
  {
    "city": "Poganovo",
    "zip": 18326
  },
  {
    "city": "Podvis",
    "zip": 19362
  },
  {
    "city": "Podvrška",
    "zip": 19321
  },
  {
    "city": "Podgorac",
    "zip": 19233
  },
  {
    "city": "Podunavci",
    "zip": 36215
  },
  {
    "city": "Požarevac",
    "zip": 12000
  },
  {
    "city": "Požega",
    "zip": 31210
  },
  {
    "city": "Pojate",
    "zip": 37214
  },
  {
    "city": "Poljana",
    "zip": 12372
  },
  {
    "city": "Poljska Ržana",
    "zip": 18328
  },
  {
    "city": "Popinci",
    "zip": 22428
  },
  {
    "city": "Popovac",
    "zip": 35254
  },
  {
    "city": "Popučke",
    "zip": 14221
  },
  {
    "city": "Porodin",
    "zip": 12375
  },
  {
    "city": "Potočac",
    "zip": 35207
  },
  {
    "city": "Poćuta",
    "zip": 14206
  },
  {
    "city": "Počekovina",
    "zip": 37243
  },
  {
    "city": "Pranjani",
    "zip": 32308
  },
  {
    "city": "Prahovo",
    "zip": 19330
  },
  {
    "city": "Prevešt",
    "zip": 35264
  },
  {
    "city": "Predejane",
    "zip": 16222
  },
  {
    "city": "Prekonoga",
    "zip": 18365
  },
  {
    "city": "Preljina",
    "zip": 32212
  },
  {
    "city": "Preševo",
    "zip": 17523
  },
  {
    "city": "Preševo-terminal",
    "zip": 17555
  },
  {
    "city": "Priboj",
    "zip": 31330
  },
  {
    "city": "Priboj Vranjski",
    "zip": 17511
  },
  {
    "city": "Privina Glava",
    "zip": 22257
  },
  {
    "city": "Prigrevica",
    "zip": 25263
  },
  {
    "city": "Prijepolje",
    "zip": 31300
  },
  {
    "city": "Prilički Kiseljak",
    "zip": 32252
  },
  {
    "city": "Prilužje",
    "zip": 38213
  },
  {
    "city": "Pričević",
    "zip": 14251
  },
  {
    "city": "Prnjavor (Mačvanski)",
    "zip": 15306
  },
  {
    "city": "Provo",
    "zip": 15215
  },
  {
    "city": "Prokuplje",
    "zip": 18400
  },
  {
    "city": "Prolom Banja",
    "zip": 18433
  },
  {
    "city": "Pružatovac",
    "zip": 11413
  },
  {
    "city": "Prhovo",
    "zip": 22442
  },
  {
    "city": "Pukovac",
    "zip": 18255
  },
  {
    "city": "Putinci",
    "zip": 22404
  },
  {
    "city": "Rabrovo",
    "zip": 12254
  },
  {
    "city": "Ravna Dubrava",
    "zip": 18246
  },
  {
    "city": "Ravni Topolovac",
    "zip": 23212
  },
  {
    "city": "Ravni",
    "zip": 31206
  },
  {
    "city": "Ravno Selo",
    "zip": 21471
  },
  {
    "city": "Ravnje",
    "zip": 22205
  },
  {
    "city": "Radalj",
    "zip": 15321
  },
  {
    "city": "Radinac",
    "zip": 11311
  },
  {
    "city": "Radičević",
    "zip": 21225
  },
  {
    "city": "Radljevo",
    "zip": 14211
  },
  {
    "city": "Radovnica",
    "zip": 17561
  },
  {
    "city": "Radojevo",
    "zip": 23221
  },
  {
    "city": "Radujevac",
    "zip": 19334
  },
  {
    "city": "Ražana",
    "zip": 31265
  },
  {
    "city": "Ražanj",
    "zip": 37215
  },
  {
    "city": "Razbojna",
    "zip": 37223
  },
  {
    "city": "Razgojna",
    "zip": 16252
  },
  {
    "city": "Rainovača",
    "zip": 15342
  },
  {
    "city": "Rajković",
    "zip": 14202
  },
  {
    "city": "Rakovac",
    "zip": 21299
  },
  {
    "city": "Ralja",
    "zip": 11233
  },
  {
    "city": "Ranilović",
    "zip": 34302
  },
  {
    "city": "Ranilug",
    "zip": 38267
  },
  {
    "city": "Ranovac",
    "zip": 12304
  },
  {
    "city": "Rastina",
    "zip": 25283
  },
  {
    "city": "Rataje",
    "zip": 37236
  },
  {
    "city": "Ratari",
    "zip": 11411
  },
  {
    "city": "Ratina",
    "zip": 36212
  },
  {
    "city": "Ratkovo",
    "zip": 25253
  },
  {
    "city": "Rača Kragujevačka",
    "zip": 34210
  },
  {
    "city": "Rača",
    "zip": 18440
  },
  {
    "city": "Rašanac",
    "zip": 12315
  },
  {
    "city": "Raševica",
    "zip": 35206
  },
  {
    "city": "Raška",
    "zip": 36350
  },
  {
    "city": "Rgotina",
    "zip": 19214
  },
  {
    "city": "Rekovac",
    "zip": 35260
  },
  {
    "city": "Resavica",
    "zip": 35237
  },
  {
    "city": "Resnik",
    "zip": 34225
  },
  {
    "city": "Ribare",
    "zip": 35220
  },
  {
    "city": "Ribari",
    "zip": 15310
  },
  {
    "city": "Ribariće",
    "zip": 36309
  },
  {
    "city": "Ribarska Banja",
    "zip": 37205
  },
  {
    "city": "Riđica",
    "zip": 25280
  },
  {
    "city": "Ripanj",
    "zip": 11232
  },
  {
    "city": "Ristovac",
    "zip": 17521
  },
  {
    "city": "Rogača",
    "zip": 11453
  },
  {
    "city": "Rogačica",
    "zip": 31255
  },
  {
    "city": "Roge",
    "zip": 31237
  },
  {
    "city": "Rogljevo",
    "zip": 19318
  },
  {
    "city": "Rožanstvo",
    "zip": 31208
  },
  {
    "city": "Roćevići",
    "zip": 36205
  },
  {
    "city": "Rudna Glava",
    "zip": 19257
  },
  {
    "city": "Rudnik",
    "zip": 32313
  },
  {
    "city": "Rudnica",
    "zip": 36353
  },
  {
    "city": "Rudno",
    "zip": 36222
  },
  {
    "city": "Rudovci",
    "zip": 11566
  },
  {
    "city": "Ruma",
    "zip": 22400
  },
  {
    "city": "Rumenka",
    "zip": 21201
  },
  {
    "city": "Ruski Krstur",
    "zip": 25233
  },
  {
    "city": "Rusko Selo",
    "zip": 23314
  },
  {
    "city": "Rutevac",
    "zip": 18224
  },
  {
    "city": "Rušanj",
    "zip": 11194
  },
  {
    "city": "Savinac",
    "zip": 19377
  },
  {
    "city": "Savino Selo",
    "zip": 21467
  },
  {
    "city": "Sajan",
    "zip": 23324
  },
  {
    "city": "Sakule",
    "zip": 26206
  },
  {
    "city": "Salaš Noćajski",
    "zip": 22204
  },
  {
    "city": "Salaš",
    "zip": 19224
  },
  {
    "city": "Samaila",
    "zip": 36202
  },
  {
    "city": "Samoš",
    "zip": 26350
  },
  {
    "city": "Sanad",
    "zip": 23331
  },
  {
    "city": "Saraorci",
    "zip": 11315
  },
  {
    "city": "Sastav Reka",
    "zip": 16213
  },
  {
    "city": "Sastavci",
    "zip": 31335
  },
  {
    "city": "Sveti Ilija",
    "zip": 17508
  },
  {
    "city": "Svetozar Miletić",
    "zip": 25211
  },
  {
    "city": "Svilajnac",
    "zip": 35210
  },
  {
    "city": "Svileuva",
    "zip": 15221
  },
  {
    "city": "Svilojevo",
    "zip": 25265
  },
  {
    "city": "Svođe",
    "zip": 16212
  },
  {
    "city": "Svojnovo",
    "zip": 35259
  },
  {
    "city": "Svrljig",
    "zip": 18360
  },
  {
    "city": "Sevojno",
    "zip": 31205
  },
  {
    "city": "Sedlare",
    "zip": 35211
  },
  {
    "city": "Selevac",
    "zip": 11407
  },
  {
    "city": "Selenča",
    "zip": 21425
  },
  {
    "city": "Seleuš",
    "zip": 26351
  },
  {
    "city": "Senta",
    "zip": 24400
  },
  {
    "city": "Senje",
    "zip": 35233
  },
  {
    "city": "Senjski Rudnik",
    "zip": 35234
  },
  {
    "city": "Sefkerin",
    "zip": 26203
  },
  {
    "city": "Seča Reka",
    "zip": 31262
  },
  {
    "city": "Sečanica",
    "zip": 18203
  },
  {
    "city": "Sečanj",
    "zip": 23240
  },
  {
    "city": "Sibač",
    "zip": 22440
  },
  {
    "city": "Sivac",
    "zip": 25223
  },
  {
    "city": "Sijarinska Banja",
    "zip": 16246
  },
  {
    "city": "Sikirica",
    "zip": 35256
  },
  {
    "city": "Sikole",
    "zip": 19225
  },
  {
    "city": "Silbaš",
    "zip": 21433
  },
  {
    "city": "Siokovac",
    "zip": 35203
  },
  {
    "city": "Sip",
    "zip": 19326
  },
  {
    "city": "Sipić",
    "zip": 34213
  },
  {
    "city": "Sirig",
    "zip": 21214
  },
  {
    "city": "Sirogojno",
    "zip": 31207
  },
  {
    "city": "Sirča",
    "zip": 36208
  },
  {
    "city": "Sićevo",
    "zip": 18311
  },
  {
    "city": "Sjenica",
    "zip": 36310
  },
  {
    "city": "Skela",
    "zip": 11509
  },
  {
    "city": "Skobalj",
    "zip": 11322
  },
  {
    "city": "Skorenovac",
    "zip": 26228
  },
  {
    "city": "Slavkovica",
    "zip": 14245
  },
  {
    "city": "Slatina",
    "zip": 19221
  },
  {
    "city": "Slovac",
    "zip": 14223
  },
  {
    "city": "Smederevska Palanka",
    "zip": 11420
  },
  {
    "city": "Smederevo",
    "zip": 11300
  },
  {
    "city": "Smilovci",
    "zip": 18323
  },
  {
    "city": "Smoljinac",
    "zip": 12312
  },
  {
    "city": "Sokobanja",
    "zip": 18230
  },
  {
    "city": "Sombor",
    "zip": 25000
  },
  {
    "city": "Sonta",
    "zip": 25264
  },
  {
    "city": "Sopot",
    "zip": 11450
  },
  {
    "city": "Sot",
    "zip": 22243
  },
  {
    "city": "Sočanica",
    "zip": 38217
  },
  {
    "city": "Sremska Mitrovica",
    "zip": 22000
  },
  {
    "city": "Srbobran",
    "zip": 21480
  },
  {
    "city": "Srednjevo",
    "zip": 12253
  },
  {
    "city": "Sremska Kamenica",
    "zip": 21202
  },
  {
    "city": "Sremska Rača",
    "zip": 22247
  },
  {
    "city": "Sremski Karlovci",
    "zip": 21205
  },
  {
    "city": "Sremski Mihaljevci",
    "zip": 22413
  },
  {
    "city": "Sremčica",
    "zip": 11253
  },
  {
    "city": "Srpska Crnja",
    "zip": 23220
  },
  {
    "city": "Srpski Itebej",
    "zip": 23233
  },
  {
    "city": "Srpski Krstur",
    "zip": 23334
  },
  {
    "city": "Srpski Miletić",
    "zip": 25244
  },
  {
    "city": "Stave",
    "zip": 14255
  },
  {
    "city": "Stajićevo",
    "zip": 23204
  },
  {
    "city": "Stalać",
    "zip": 37212
  },
  {
    "city": "Stanišić",
    "zip": 25284
  },
  {
    "city": "Stapar",
    "zip": 25240
  },
  {
    "city": "Stara Moravica",
    "zip": 24340
  },
  {
    "city": "Stara Pazova",
    "zip": 22300
  },
  {
    "city": "Stari Banovci",
    "zip": 22305
  },
  {
    "city": "Stari Žednik",
    "zip": 24224
  },
  {
    "city": "Stari Lec",
    "zip": 26371
  },
  {
    "city": "Stari Slankamen",
    "zip": 22329
  },
  {
    "city": "Staro Selo",
    "zip": 11324
  },
  {
    "city": "Starčevo",
    "zip": 26232
  },
  {
    "city": "Stejanovci",
    "zip": 22405
  },
  {
    "city": "Stenjevac",
    "zip": 35215
  },
  {
    "city": "Stepanovićevo",
    "zip": 21212
  },
  {
    "city": "Stepojevac",
    "zip": 11564
  },
  {
    "city": "Stojnik",
    "zip": 34307
  },
  {
    "city": "Stopanja",
    "zip": 37242
  },
  {
    "city": "Stragari",
    "zip": 34323
  },
  {
    "city": "Straža",
    "zip": 26345
  },
  {
    "city": "Strelac",
    "zip": 18332
  },
  {
    "city": "Stubal",
    "zip": 17512
  },
  {
    "city": "Stubica",
    "zip": 35246
  },
  {
    "city": "Stubline",
    "zip": 11507
  },
  {
    "city": "Studenica",
    "zip": 36343
  },
  {
    "city": "Subotinac",
    "zip": 18227
  },
  {
    "city": "Subotica (kod Svijanca)",
    "zip": 35209
  },
  {
    "city": "Subotica",
    "zip": 24000
  },
  {
    "city": "Subotište",
    "zip": 22414
  },
  {
    "city": "Sukovo",
    "zip": 18322
  },
  {
    "city": "Sumrakovac",
    "zip": 19376
  },
  {
    "city": "Supska",
    "zip": 35228
  },
  {
    "city": "Surduk",
    "zip": 22307
  },
  {
    "city": "Surdulica",
    "zip": 17530
  },
  {
    "city": "Susek",
    "zip": 21313
  },
  {
    "city": "Sutjeska",
    "zip": 23244
  },
  {
    "city": "Tavankut",
    "zip": 24214
  },
  {
    "city": "Takovo",
    "zip": 32304
  },
  {
    "city": "Taraš",
    "zip": 23209
  },
  {
    "city": "Tekeriš",
    "zip": 15234
  },
  {
    "city": "Tekija",
    "zip": 19325
  },
  {
    "city": "Telečka",
    "zip": 25222
  },
  {
    "city": "Temerin",
    "zip": 21235
  },
  {
    "city": "Temska",
    "zip": 18355
  },
  {
    "city": "Tešica",
    "zip": 18212
  },
  {
    "city": "Titel",
    "zip": 21240
  },
  {
    "city": "Toba",
    "zip": 23222
  },
  {
    "city": "Tovariševo",
    "zip": 21424
  },
  {
    "city": "Tomaševac",
    "zip": 23262
  },
  {
    "city": "Tomislavci",
    "zip": 24334
  },
  {
    "city": "Topola",
    "zip": 34310
  },
  {
    "city": "Topolovnik",
    "zip": 12226
  },
  {
    "city": "Toponica",
    "zip": 34243
  },
  {
    "city": "Torak",
    "zip": 23232
  },
  {
    "city": "Torda",
    "zip": 23214
  },
  {
    "city": "Tornjoš",
    "zip": 24352
  },
  {
    "city": "Totovo Selo",
    "zip": 24427
  },
  {
    "city": "Trbušani",
    "zip": 32205
  },
  {
    "city": "Trgovište",
    "zip": 17525
  },
  {
    "city": "Trešnjevac",
    "zip": 24426
  },
  {
    "city": "Trešnjevica",
    "zip": 35248
  },
  {
    "city": "Trnavci",
    "zip": 37235
  },
  {
    "city": "Trnjane",
    "zip": 18213
  },
  {
    "city": "Trnjane",
    "zip": 19306
  },
  {
    "city": "Trstenik",
    "zip": 37240
  },
  {
    "city": "Trupale",
    "zip": 18211
  },
  {
    "city": "Tršić",
    "zip": 15303
  },
  {
    "city": "Tulare",
    "zip": 16247
  },
  {
    "city": "Turekovac",
    "zip": 16231
  },
  {
    "city": "Turija",
    "zip": 12257
  },
  {
    "city": "Turija",
    "zip": 21215
  },
  {
    "city": "Tutin",
    "zip": 36320
  },
  {
    "city": "Ćićevac",
    "zip": 37210
  },
  {
    "city": "Ćuprija",
    "zip": 35230
  },
  {
    "city": "Ub",
    "zip": 14210
  },
  {
    "city": "Ugao",
    "zip": 36313
  },
  {
    "city": "Ugrinovci",
    "zip": 32314
  },
  {
    "city": "Užice",
    "zip": 31000
  },
  {
    "city": "Uzdin",
    "zip": 26216
  },
  {
    "city": "Uzovnica",
    "zip": 15319
  },
  {
    "city": "Uljma",
    "zip": 26330
  },
  {
    "city": "Umka",
    "zip": 11260
  },
  {
    "city": "Urovica",
    "zip": 19305
  },
  {
    "city": "Utrine",
    "zip": 24437
  },
  {
    "city": "Ušće",
    "zip": 36342
  },
  {
    "city": "Farkaždin",
    "zip": 23264
  },
  {
    "city": "Feketić",
    "zip": 24323
  },
  {
    "city": "Futog",
    "zip": 21410
  },
  {
    "city": "Hajdukovo",
    "zip": 24414
  },
  {
    "city": "Hajdučica",
    "zip": 26370
  },
  {
    "city": "Hetin",
    "zip": 23235
  },
  {
    "city": "Horgoš",
    "zip": 24410
  },
  {
    "city": "Horgoš granični prelaz",
    "zip": 24411
  },
  {
    "city": "Hrtkovci",
    "zip": 22427
  },
  {
    "city": "Cerovac",
    "zip": 15224
  },
  {
    "city": "Crvena Reka",
    "zip": 18313
  },
  {
    "city": "Crvena Crkva",
    "zip": 26323
  },
  {
    "city": "Crvenka",
    "zip": 25220
  },
  {
    "city": "Crepaja",
    "zip": 26213
  },
  {
    "city": "Crkvine",
    "zip": 36321
  },
  {
    "city": "Crna Bara",
    "zip": 15355
  },
  {
    "city": "Crna Bara",
    "zip": 23328
  },
  {
    "city": "Crna Trava",
    "zip": 16215
  },
  {
    "city": "Crnoklište",
    "zip": 18304
  },
  {
    "city": "Čajetina",
    "zip": 31310
  },
  {
    "city": "Čalma",
    "zip": 22231
  },
  {
    "city": "Čantavir",
    "zip": 24220
  },
  {
    "city": "Čačak",
    "zip": 32000
  },
  {
    "city": "Čelarevo",
    "zip": 21413
  },
  {
    "city": "Čenej",
    "zip": 21233
  },
  {
    "city": "Čenta",
    "zip": 23266
  },
  {
    "city": "Čerević",
    "zip": 21311
  },
  {
    "city": "Čestereg",
    "zip": 23215
  },
  {
    "city": "Čečina",
    "zip": 18417
  },
  {
    "city": "Čitluk",
    "zip": 18232
  },
  {
    "city": "Čitluk",
    "zip": 37208
  },
  {
    "city": "Čoka",
    "zip": 23320
  },
  {
    "city": "Čonoplja",
    "zip": 25210
  },
  {
    "city": "Čortanovci",
    "zip": 22326
  },
  {
    "city": "Čukojevac",
    "zip": 36220
  },
  {
    "city": "Čumić",
    "zip": 34322
  },
  {
    "city": "Čurug",
    "zip": 21238
  },
  {
    "city": "Džep",
    "zip": 17514
  },
  {
    "city": "Džigolj",
    "zip": 18405
  },
  {
    "city": "Šabac",
    "zip": 15000
  },
  {
    "city": "Šajkaš",
    "zip": 21244
  },
  {
    "city": "Šarbanovac",
    "zip": 19373
  },
  {
    "city": "Šarbanovac-Timok",
    "zip": 19379
  },
  {
    "city": "Šašinci",
    "zip": 22425
  },
  {
    "city": "Šepšin",
    "zip": 11433
  },
  {
    "city": "Šetonje",
    "zip": 12309
  },
  {
    "city": "Šid",
    "zip": 22239
  },
  {
    "city": "Šilovo",
    "zip": 38252
  },
  {
    "city": "Šimanovci",
    "zip": 22310
  },
  {
    "city": "Šljivovac",
    "zip": 34219
  },
  {
    "city": "Šljivovica",
    "zip": 31244
  },
  {
    "city": "Šljivovo",
    "zip": 37239
  },
  {
    "city": "Štavalj",
    "zip": 36311
  },
  {
    "city": "Štitar",
    "zip": 15354
  },
  {
    "city": "Štitare",
    "zip": 36314
  },
  {
    "city": "Štrpce",
    "zip": 38236
  },
  {
    "city": "Štubik",
    "zip": 19303
  },
  {
    "city": "Šupljak",
    "zip": 24418
  },
  {
    "city": "Šurjan",
    "zip": 23254
  },
  {
    "city": "Grocka",
    "zip": 11306
  },
  {
    "city": "Surčin",
    "zip": 11271
  },
  {
    "city": "Batajnica",
    "zip": 11273
  },
  {
    "city": "Savski venac",
    "zip": 11000
  },
  {
    "city": "Stari grad",
    "zip": 11000
  },
  {
    "city": "Vračar",
    "zip": 11000
  },
  {
    "city": "Voždovac",
    "zip": 11010
  },
  {
    "city": "Čukarica",
    "zip": 11030
  },
  {
    "city": "Zvezdara",
    "zip": 11050
  },
  {
    "city": "Palilula",
    "zip": 11060
  },
  {
    "city": "Novi Beograd",
    "zip": 11070
  },
  {
    "city": "Zemun",
    "zip": 11080
  },
  {
    "city": "Rakovica",
    "zip": 11090
  }
]